TEVEL2-1                
1 63217U 25052H   26068.64782323  .00020683  00000+0  70600-3 0  9994
2 63217  97.3991 324.7682 0004767 104.8919 255.2849 15.30341923 54855
STARLINK-35512          
1 66330U 25253M   26068.43697577  .00029255  00000+0  10683-2 0  9997
2 66330  42.9985 214.1234 0000367 188.9051 171.1794 15.27582162 20205
